STARLINK-2022           
1 47643U 21012Z   23281.80777698  .00039789  00000+0  26753-2 0  9998
2 47643  53.0543  55.0287 0001849  84.0487 276.0713 15.06396257147198
